{"spkid": "50764820", "covariance": {"epoch": "2459382.5", "elements": [{"label": "e", "name": "e", "sigma": 1.28679041865239e-07, "units": null, "title": "eccentricity", "value": ".5422019945809569"}, {"label": "q", "units": "au", "value": ".8948951115553871", "title": "perihelion distance", "sigma": 2.57017710964024e-07, "name": "q"}, {"sigma": 2.83100208005382e-05, "name": "tp", "units": "TDB", "value": "2459808.587151704206", "title": "time of perihelion passage", "label": "tp"}, {"units": "deg", "value": "303.1100614068426", "title": "longitude of the ascending node", "sigma": 4.45837060256031e-05, "name": "om", "label": "node"}, {"label": "peri", "title": "argument of perihelion", "value": "214.2320355452998", "units": "deg", "name": "w", "sigma": 7.11917710034377e-05}, {"name": "i", "sigma": 8.94224916185082e-06, "units": "deg", "title": "inclination", "value": "4.972136050254886", "label": "i"}], "data": [["1.655829581535585E-14", "-3.306647336777644E-14", "2.953327351788474E-12", "-1.609766616557093E-12", "7.232552388496301E-12", "3.267295874326903E-13"], ["-3.306647336777644E-14", "6.605810374918674E-14", "-5.839071404550679E-12", "3.218039647589995E-12", "-1.445739021973712E-11", "-6.521551203958063E-13"], ["2.953327351788474E-12", "-5.839071404550679E-12", "8.014572777269035E-10", "-3.165313176384044E-10", "1.37850855245898E-9", "6.913900862394111E-11"], ["-1.609766616557093E-12", "3.218039647589995E-12", "-3.165313176384044E-10", "1.987706842977394E-9", "-2.519769195143903E-9", "-1.617033511425271E-10"], ["7.232552388496301E-12", "-1.445739021973712E-11", "1.37850855245898E-9", "-2.519769195143903E-9", "5.068268258605906E-9", "2.751255193857506E-10"], ["3.267295874326903E-13", "-6.521551203958063E-13", "6.913900862394111E-11", "-1.617033511425271E-10", "2.751255193857506E-10", "7.996382007262168E-11"]], "labels": ["e", "q", "tp", "node", "peri", "i"]}, "elements": [{"label": "e", "name": "e", "sigma": "1.2766E-7", "units": null, "title": "eccentricity", "value": ".5425717998379275"}, {"label": "a", "sigma": "1.4258E-8", "name": "a", "value": "1.954068889908889", "title": "semi-major axis", "units": "au"}, {"sigma": "2.5385E-7", "name": "q", "units": "au", "title": "perihelion distance", "value": ".8938462153037221", "label": "q"}, {"name": "i", "sigma": "8.9401E-6", "units": "deg", "value": "4.96974846552149", "title": "inclination; angle with respect to x-y ecliptic plane", "label": "i"}, {"label": "node", "units": "deg", "title": "longitude of the ascending node", "value": "303.0421322770727", "name": "om", "sigma": "4.4631E-5"}, {"label": "peri", "sigma": "7.1144E-5", "name": "w", "units": "deg", "title": "argument of perihelion", "value": "214.3044802968716"}, {"label": "M", "title": "mean anomaly", "value": "142.4591794752782", "units": "deg", "name": "ma", "sigma": "1.0401E-5"}, {"label": "tp", "sigma": "2.7754E-5", "name": "tp", "title": "time of perihelion passage", "value": "2460805.682703378220", "units": "TDB"}, {"sigma": "1.092E-5", "name": "per", "value": "997.7189768140306", "title": "sidereal orbital period", "units": "d", "label": "period"}, {"name": "n", "sigma": "3.9492E-9", "units": "deg/d", "value": ".3608230457333499", "title": "mean motion", "label": "n"}, {"label": "Q", "sigma": "2.1994E-8", "name": "ad", "units": "au", "value": "3.014291564514056", "title": "aphelion distance"}], "epoch": "2461200.5"}